STARLINK-30396          
1 57964U 23151A   26068.17083723 -.00002389  00000+0 -79426-4 0  9991
2 57964  43.0003 339.2340 0001586 268.3218  91.7451 15.26736531135686
FLOCK 4G-2              
1 62661U 25009BE  26068.66207492  .00013752  00000+0  51068-3 0  9995
2 62661  97.4044 151.2221 0003181 329.2677  30.8376 15.27675260121321
